[{"OBJECT_NAME":"GLOBALSTAR M066","OBJECT_ID":"2007-048C","EPOCH":"2026-03-09T21:23:14.394048","MEAN_MOTION":12.3038676,"ECCENTRICITY":0.0004405,"INCLINATION":51.962,"RA_OF_ASC_NODE":342.9649,"ARG_OF_PERICENTER":187.1245,"MEAN_ANOMALY":257.5836,"EPHEMERIS_TYPE":0,"CLASSIFICATION_TYPE":"U","NORAD_CAT_ID":32265,"ELEMENT_SET_NO":999,"REV_AT_EPOCH":84800,"BSTAR":2.647797e-5,"MEAN_MOTION_DOT":-9.1e-7,"MEAN_MOTION_DDOT":0},{"OBJECT_NAME":"DELTA 1 DEB","OBJECT_ID":"1976-077G","EPOCH":"2026-03-09T20:13:32.385216","MEAN_MOTION":12.14462248,"ECCENTRICITY":0.01437011,"INCLINATION":102.6461,"RA_OF_ASC_NODE":21.5306,"ARG_OF_PERICENTER":175.9677,"MEAN_ANOMALY":243.3565,"EPHEMERIS_TYPE":0,"CLASSIFICATION_TYPE":"U","NORAD_CAT_ID":10646,"ELEMENT_SET_NO":999,"REV_AT_EPOCH":20027,"BSTAR":0.00035539769,"MEAN_MOTION_DOT":-9.0e-8,"MEAN_MOTION_DDOT":0}]
